JCSAT-17                
1 45245U 20013A   23255.54313549 -.00000322  00000+0  00000+0 0  9993
2 45245   5.7713 347.7563 0004099 183.4776 151.5692  1.00271249 13119
GEO-KOMPSAT-2B          
1 45246U 20013B   23255.47562902 -.00000353  00000+0  00000+0 0  9999
2 45246   0.0452 316.0909 0001695 281.9896  52.6295  1.00270927 13153
BEIDOU-3 G2             
1 45344U 20017A   23255.43730059 -.00000149  00000+0  00000+0 0  9991
2 45344   2.0530  16.5924 0003110 162.2939  49.7669  1.00272683 13145
AEHF-6 (USA 298)        
1 45465U 20022B   23255.54087631 -.00000309  00000+0  00000+0 0  9992
2 45465   4.8889 299.7100 0044716   5.7696  18.2759  1.00273018 12902
BEIDOU-3 G3             
1 45807U 20040A   23255.57300892 -.00000363  00000+0  00000+0 0  9992
2 45807   0.6095 345.3602 0006037 329.0422 353.7842  1.00272050 11952
APSTAR 6D               
1 45863U 20045A   23255.54107605 -.00000326  00000+0  00000+0 0  9992
2 45863   0.0344  97.9752 0002057  56.3119 165.7958  1.00273097 11740
KOREASAT 116            
1 45920U 20048A   23255.58035479 -.00000371  00000+0  00000+0 0  9992
2 45920   0.0199 167.7318 0000865   7.8576 140.8773  1.00269766 11522
EXPRESS 103             
1 45985U 20053A   23255.50882609 -.00000289  00000+0  00000+0 0  9994
2 45985   0.0179 237.6261 0000416 104.7520 288.5408  1.00269432 11539
EXPRESS 80              
1 45986U 20053B   23254.80401351 -.00000147  00000+0  00000+0 0  9991
2 45986   0.0253 237.2996 0000285 219.4628 263.2406  1.00272401 11528
BSAT-4B                 
1 46112U 20056A   23255.57302803 -.00000359  00000+0  00000+0 0  9998
2 46112   0.0252 170.7854 0004584 345.4800 151.1750  1.00274047 11278
MEV-2                   
1 46113U 20056B   23254.36420193 -.00000022  00000+0  00000+0 0  9995
2 46113   0.0385 266.1968 0000915 296.9095 277.1383  1.00271685 70420
GALAXY 30 (G-30)        
1 46114U 20056C   23255.61629253  .00000028  00000+0  00000+0 0  9998
2 46114   0.0199 132.5634 0001881  44.5529 271.1058  1.00272842 11178
GAOFEN 13-01            
1 46610U 20071A   23255.58035479 -.00000372  00000+0  00000+0 0  9996
2 46610   0.1148 290.2403 0013742  80.6701 307.2022  1.00279328 10809
TIANTONG-1 2            
1 46916U 20082A   23255.53643568 -.00000367  00000+0  00000+0 0  9990
2 46916   3.0341 293.2272 0002210 276.2633  99.8868  1.00270797 10541
LUCAS (JDRS-1)          
1 47202U 20089A   23255.50882609 -.00000245  00000+0  00000+0 0  9999
2 47202   0.0583 270.2197 0001633 261.6696  93.3324  1.00271691 10305
SXM-7                   
1 47240U 20096A   23255.49392484 -.00000213  00000+0  00000+0 0  9999
2 47240   0.0032  32.7126 0000830 119.2179 291.8759  1.00271099 10197
CMS-01                  
1 47256U 20099A   23255.55743686 -.00000174  00000+0  00000+0 0  9996
2 47256   0.0228 108.4826 0006495 143.1527  23.3283  1.00273854 10084
TURKSAT 5A              
1 47306U 21001A   23255.30198087  .00000145  00000+0  00000+0 0  9995
2 47306   0.0172 114.0032 0000163 162.6949 213.9940  1.00271601  9869
TIANTONG-1 3            
1 47321U 21003A   23255.56517543 -.00000165  00000+0  00000+0 0  9997
2 47321   3.4560 309.2850 0003748 242.7296  84.2808  1.00272631  9841
TJS-6                   
1 47613U 21010A   23254.59844414  .00000033  00000+0  00000+0 0  9994
2 47613   0.4898  83.8270 0001554 162.8078 137.6517  1.00274672  9689
SBIRS GEO-5 (USA 315)   
1 48618U 21042A   23255.30015340  .00000109  00000+0  00000+0 0  9997
2 48618   6.5986 325.4623 0002011 223.8172 290.7096  1.00272939  8641
FENGYUN 4B              
1 48808U 21047A   23255.53910916 -.00000332  00000+0  00000+0 0  9990
2 48808   0.1952  83.1475 0002521  34.0826 200.9823  1.00282316  8463
SXM-8                   
1 48838U 21049A   23255.49401187 -.00000213  00000+0  00000+0 0  9993
2 48838   0.0247 236.3836 0003388 135.5971  71.8811  1.00271637  8483
TIANLIAN 1-05           
1 49011U 21063A   23255.29928316  .00000098  00000+0  00000+0 0  9999
2 49011   1.0248 279.2981 0003891 250.8907 305.3871  1.00275030  7969
STAR ONE D2             
1 49055U 21069A   23254.99539110 -.00000275  00000+0  00000+0 0  9997
2 49055   0.0161 147.1893 0002715  24.3703 107.5357  1.00271978  7819
EUTELSAT QUANTUM        
1 49056U 21069B   23255.27271719  .00000116  00000+0  00000+0 0  9991
2 49056   0.0270  34.4363 0001989 155.0026 307.4639  1.00273085  7818
CHINASAT 2E (ZX 2E)     
1 49062U 21071A   23255.58591188 -.00000300  00000+0  00000+0 0  9996
2 49062   0.0524 317.5840 0002034 327.9818  14.7282  1.00269753  7935
TJS-7                   
1 49115U 21077A   23255.55620481 -.00000131  00000+0  00000+0 0  9999
2 49115   0.4324  95.0411 0003164 262.6475  94.2952  1.00269777  7682
CHINASAT 9B             
1 49125U 21080A   23255.38778512 -.00000322  00000+0  00000+0 0  9996
2 49125   0.0320 109.0341 0003118  76.5582  46.5478  1.00270740  7521
SHIJIAN-21 (SJ-21)      
1 49330U 21094A   23255.69119118  .00000123  00000+0  00000+0 0  9992
2 49330   9.2870  47.1722 0079976  27.1911 207.5811  1.00375595  7140
SES-17                  
1 49332U 21095A   23255.45516983 -.00000281  00000+0  00000+0 0  9996
2 49332   0.0284 140.1059 0001022  34.5890 273.2731  1.00266533  7728
SYRACUSE 4A             
1 49333U 21095B   23255.27271719  .00000126  00000+0  00000+0 0  9999
2 49333   0.0219 158.0731 0001507   4.3578 332.2715  1.00269648  7861
QZS-1R                  
1 49336U 21096A   23246.63047823 -.00000285  00000+0  00000+0 0  9997
2 49336  35.3487  94.9203 0742050 269.1144 338.5695  1.00292751  6809
CHINASAT 1D (ZX 1D)     
1 49505U 21114A   23255.53921712 -.00000346  00000+0  00000+0 0  9991
2 49505   0.3266 271.8097 0001899 300.9985 102.7524  1.00270353  6724
STPSAT-6                
1 49817U 21118A   23255.58617747 -.00000054  00000+0  00000+0 0  9992
2 49817   0.0111 147.2697 0000565  69.4623 233.9633  1.00273219  6444
LDPE-1                  
1 49818U 21118B   23255.13799461  .00000049  00000+0  00000+0 0  9991
2 49818   1.5069  91.7774 0004184 198.8001 160.0784  1.00634520  6500
EXPRESS AMU-7           
1 50001U 21123A   23254.62417074 -.00000254  00000+0  00000+0 0  9992
2 50001   0.0188 186.4164 0000366 208.1393 325.4467  1.00268758  6415
EXPRESS AMU-3           
1 50002U 21123B   23254.74030604 -.00000332  00000+0  00000+0 0  9993
2 50002   0.0219 221.0879 0000491 184.0267 314.8889  1.00270582  6408
TIANLIAN 2-02           
1 50005U 21124A   23255.57484402 -.00000023  00000+0  00000+0 0  9995
2 50005   1.3975 277.0553 0001675 236.6383 215.6245  1.00274927  6504
TURKSAT 5B              
1 50212U 21126A   23255.27341234  .00000136  00000+0  00000+0 0  9993
2 50212   0.0689 338.0261 0001895 329.8847 183.5388  1.00272177  6180
INMARSAT 6-F1           
1 50319U 21128A   23254.66772203 -.00000182  00000+0  00000+0 0  9991
2 50319   0.0207 127.0652 0001125 115.2858  72.2051  1.00268469  6134
SHIYAN 12 01 (SY-12 01) 
1 50321U 21129A   23255.68794740 -.00000276  00000+0  00000+0 0  9992
2 50321   1.0589  96.7251 0002107 152.3616  89.6448  1.00080374  6390
SHIYAN 12 02 (SY-12 02) 
1 50322U 21129B   23255.72798208 -.00000004  00000+0  00000+0 0  9990
2 50322   1.0585  96.7437 0002688 132.5955  85.3304  1.00455494  6396
TJS-9                   
1 50574U 21135A   23255.54302784 -.00000307  00000+0  00000+0 0  9992
2 50574   0.0381 110.7330 0003267  77.5117 135.7503  1.00274878  6328
USA 324                 
1 51280U 22006A   23254.41189524 -.00000059  00000+0  00000+0 0  9999
2 51280   1.0986  92.3588 0000750 170.3068  39.8033  1.00397029  6007
USA 325                 
1 51281U 22006B   23254.38591212  .00000079  00000+0  00000+0 0  9998
2 51281   0.0874  86.7958 0000783 164.3957  62.5018  1.00346522  6005
GOES 18                 
1 51850U 22021A   23255.57145503  .00000088  00000+0  00000+0 0  9997
2 51850   0.0036  21.6447 0000285 165.5662 232.8193  1.00271857  5666
CHINASAT 6D             
1 52255U 22038A   23254.67910646 -.00000364  00000+0  00000+0 0  9991
2 52255   0.0711 267.7512 0002006 320.4222 131.8091  1.00272844  5302
NILESAT 301             
1 52817U 22061A   23255.36611649 -.00000067  00000+0  00000+0 0  9999
2 52817   0.0253  37.1525 0002014 130.9355 307.8295  1.00270891  4636
CMS-02 (GSAT 24)        
1 52903U 22067A   23255.55743686 -.00000174  00000+0  00000+0 0  9998
2 52903   0.0690 272.3943 0005815 197.5667 165.0093  1.00270982  4508
MEASAT 3D               
1 52904U 22067B   23255.50882609 -.00000251  00000+0  00000+0 0  9999
2 52904   0.0534 327.3588 0001134 280.4194  18.1816  1.00272038  4537
SES-22                  
1 52933U 22071A   23255.57227685  .00000079  00000+0  00000+0 0  9997
2 52933   0.0235 251.6394 0001056 295.5156 235.1960  1.00274577  4428
WFOV (USA 332)          
1 52940U 22073A   23255.53369962 -.00000371  00000+0  00000+0 0  9994
2 52940   1.1000  92.1945 0004149  79.6584 130.8142  1.00269231  4255
TIANLIAN 2-03           
1 53100U 22078A   23254.77518333  .00000059  00000+0  00000+0 0  9993
2 53100   1.9508 280.6271 0001440 244.0704 115.4523  1.00270517  4435
SBIRS GEO-6 (USA 336)   
1 53355U 22092A   23255.56723083  .00000107  00000+0  00000+0 0  9993
2 53355   5.1559 310.9260 0012382 183.9103 275.6671  1.00271231  4128
EUTELSAT KONNECT VHTS   
1 53765U 22110A   23255.36811802  .00000008  00000+0  00000+0 0  9994
2 53765   0.0458  99.1842 0002965  67.3400 319.8171  1.00270462  3689
CHINASAT 1E (ZX 1E)     
1 53813U 22112A   23255.55743686 -.00000160  00000+0  00000+0 0  9995
2 53813   0.5951 277.3907 0002381 261.7241  94.2610  1.00273510  3738
SES-20                  
1 53960U 22123A   23255.55358678 -.00000109  00000+0  00000+0 0  9996
2 53960   0.0162 166.3523 0001698 300.6288 340.5034  1.00270775  3428
SES-21                  
1 53961U 22123B   23254.94146529  .00000060  00000+0  00000+0 0  9994
2 53961   0.0177  93.1944 0001095  72.4470  32.9822  1.00270556  3432
